STARLINK-3102
1 29151C 21082X   21325.19030322 -.00022542  00000-0 -18877-3 0  3250
2 29151  69.9982 295.5248 0003546 287.5926 143.5459 15.69779045    12
